NORAD_CAT_ID,OBJECT_NAME,OBJECT_TYPE,EPOCH,MEAN_MOTION,ECCENTRICITY,INCLINATION,RA_OF_ASC_NODE,ARG_OF_PERICENTER,MEAN_ANOMALY,BSTAR,MEAN_MOTION_DOT,MEAN_MOTION_DDOT,TLE_LINE0,TLE_LINE1,TLE_LINE2,SEMIMAJOR_AXIS,PERIOD,APOGEE,PERIGEE,DECAYED
52871.0,STARLINK-4207,PAYLOAD,2023-12-24 11:43:55,15.08843732,0.0001652,53.2178,33.2965,99.1029,261.015,0.00051648,7.942e-05,0.0,0 STARLINK-4207,1 52871U 22062AT  23358.48883630  .00007942  00000-0  51648-3 0  9995,2 52871  53.2178  33.2965 0001652  99.1029 261.0150 15.08843732 84359,6917.869,95.437,540.877,538.591,0.0
52871.0,STARLINK-4207,PAYLOAD,2023-12-24 22:51:37,15.08840769,0.0001501,53.218,31.2154,109.366,250.7495,0.00031783,4.774e-05,0.0,0 STARLINK-4207,1 52871U 22062AT  23358.95251739  .00004774  00000-0  31783-3 0  9994,2 52871  53.2180  31.2154 0001501 109.3660 250.7495 15.08840769 84914,6917.878,95.438,540.781,538.705,0.0
52871.0,STARLINK-4207,PAYLOAD,2023-12-25 09:59:19,15.0884823,0.0001613,53.2176,29.1377,91.6125,268.5052,0.00041263,6.287e-05,0.0,0 STARLINK-4207,1 52871U 22062AT  23359.41619650  .00006287  00000-0  41263-3 0  9991,2 52871  53.2176  29.1377 0001613  91.6125 268.5052 15.08848230 84495,6917.855,95.437,540.836,538.604,0.0
52871.0,STARLINK-4207,PAYLOAD,2023-12-26 01:53:11,15.08843905,0.0001827,53.2173,26.1658,79.9646,280.1553,0.0002315,3.399e-05,0.0,0 STARLINK-4207,1 52871U 22062AT  23360.07859992  .00003399  00000-0  23150-3 0  9996,2 52871  53.2173  26.1658 0001827  79.9646 280.1553 15.08843905 85081,6917.868,95.437,540.997,538.47,0.0
52871.0,STARLINK-4207,PAYLOAD,2023-12-26 08:14:43,15.08841453,0.0001628,53.2178,24.9752,90.3963,269.7215,0.00014499,2.02e-05,0.0,0 STARLINK-4207,1 52871U 22062AT  23360.34355989  .00002020  00000-0  14499-3 0  9999,2 52871  53.2178  24.9752 0001628  90.3963 269.7215 15.08841453 84639,6917.876,95.437,540.867,538.615,0.0
52871.0,STARLINK-4207,PAYLOAD,2023-12-27 01:43:58,15.0883859,0.0001668,53.2173,21.7048,88.0707,272.0476,0.00013876,1.921e-05,0.0,0 STARLINK-4207,1 52871U 22062AT  23361.07220340  .00001921  00000-0  13876-3 0  9999,2 52871  53.2173  21.7048 0001668  88.0707 272.0476 15.08838590 85232,6917.885,95.438,540.904,538.596,0.0
52871.0,STARLINK-4207,PAYLOAD,2023-12-27 08:05:30,15.08839985,0.0001673,53.218,20.5148,98.8743,261.2439,0.00010539,1.39e-05,0.0,0 STARLINK-4207,1 52871U 22062AT  23361.33716338  .00001390  00000-0  10539-3 0  9998,2 52871  53.2180  20.5148 0001673  98.8743 261.2439 15.08839985 84780,6917.88,95.438,540.903,538.588,0.0
52871.0,STARLINK-4207,PAYLOAD,2023-12-28 06:20:54,15.08842453,0.0001632,53.218,16.3513,96.7315,263.3863,0.00016869,2.398e-05,0.0,0 STARLINK-4207,1 52871U 22062AT  23362.26452248  .00002398  00000-0  16869-3 0  9999,2 52871  53.2180  16.3513 0001632  96.7315 263.3863 15.08842453 85415,6917.873,95.437,540.867,538.609,0.0
52871.0,STARLINK-4207,PAYLOAD,2023-12-29 06:11:42,15.08837912,0.0001605,53.2179,11.8905,94.4312,265.6864,7.3922e-05,8.89e-06,0.0,0 STARLINK-4207,1 52871U 22062AT  23363.25812565  .00000889  00000-0  73922-4 0  9998,2 52871  53.2179  11.8905 0001605  94.4312 265.6864 15.08837912 85566,6917.887,95.438,540.862,538.641,0.0
52871.0,STARLINK-4207,PAYLOAD,2023-12-30 06:02:28,15.08844189,0.0001548,53.2183,7.4324,102.0237,258.0929,0.00012799,1.75e-05,0.0,0 STARLINK-4207,1 52871U 22062AT  23364.25172252  .00001750  00000-0  12799-3 0  9993,2 52871  53.2183   7.4324 0001548 102.0237 258.0929 15.08844189 85220,6917.868,95.437,540.803,538.662,0.0
52871.0,STARLINK-4207,PAYLOAD,2023-12-31 09:04:02,15.0883826,0.0001503,53.2182,2.3725,92.9562,267.1602,9.3831e-05,1.206e-05,0.0,0 STARLINK-4207,1 52871U 22062AT  23365.37780868  .00001206  00000-0  93831-4 0  9998,2 52871  53.2182   2.3725 0001503  92.9562 267.1602 15.08838260 85881,6917.886,95.438,540.79,538.711,0.0
52871.0,STARLINK-4207,PAYLOAD,2024-01-01 04:08:41,15.08823388,0.0001733,53.2183,358.8034,62.6089,297.5079,-0.00010772,-2.001e-05,0.0,0 STARLINK-4207,1 52871U 22062AT  24001.17270682 -.00002001  00000-0 -10772-3 0  9990,2 52871  53.2183 358.8034 0001733  62.6089 297.5079 15.08823388 86002,6917.931,95.439,540.995,538.597,0.0
52871.0,STARLINK-4207,PAYLOAD,2024-01-01 08:54:51,15.08825049,0.0001557,53.2183,357.9093,81.9542,278.1627,-9.6168e-05,-1.818e-05,0.0,0 STARLINK-4207,1 52871U 22062AT  24001.37142596 -.00001818  00000-0 -96168-4 0  9993,2 52871  53.2183 357.9093 0001557  81.9542 278.1627 15.08825049 85547,6917.926,95.439,540.868,538.714,0.0
52871.0,STARLINK-4207,PAYLOAD,2024-01-02 03:59:27,15.08841077,0.0001659,53.2188,354.3426,74.6149,285.5026,0.00012852,1.758e-05,0.0,0 STARLINK-4207,1 52871U 22062AT  24002.16629609  .00001758  00000-0  12852-3 0  9994,2 52871  53.2188 354.3426 0001659  74.6149 285.5026 15.08841077 86150,6917.877,95.437,540.89,538.594,0.0
52871.0,STARLINK-4207,PAYLOAD,2024-01-02 08:45:37,15.0884652,0.0001526,53.2185,353.4531,89.0232,271.0935,0.00016719,2.374e-05,0.0,0 STARLINK-4207,1 52871U 22062AT  24002.36501244  .00002374  00000-0  16719-3 0  9991,2 52871  53.2185 353.4531 0001526  89.0232 271.0935 15.08846520 85695,6917.86,95.437,540.781,538.67,0.0
52871.0,STARLINK-4207,PAYLOAD,2024-01-03 03:50:16,15.08828209,0.0002097,53.2181,349.8838,58.3977,301.722,0.00021037,3.06e-05,0.0,0 STARLINK-4207,1 52871U 22062AT  24003.15991024  .00003060  00000-0  21037-3 0  9990,2 52871  53.2181 349.8838 0002097  58.3977 301.7220 15.08828209 86300,6917.916,95.438,541.232,538.331,0.0
52871.0,STARLINK-4207,PAYLOAD,2024-01-03 08:36:25,15.08833897,0.0001688,53.2176,348.9918,90.7003,269.4183,0.00026437,3.921e-05,0.0,0 STARLINK-4207,1 52871U 22062AT  24003.35862714  .00003921  00000-0  26437-3 0  9990,2 52871  53.2176 348.9918 0001688  90.7003 269.4183 15.08833897 85843,6917.899,95.438,540.932,538.596,0.0
52871.0,STARLINK-4207,PAYLOAD,2024-01-04 03:41:02,15.0885588,0.0001761,53.2166,345.4238,86.9373,273.182,0.00032171,4.838e-05,0.0,0 STARLINK-4207,1 52871U 22062AT  24004.15349599  .00004838  00000-0  32171-3 0  9990,2 52871  53.2166 345.4238 0001761  86.9373 273.1820 15.08855880 86452,6917.832,95.437,540.915,538.479,0.0
52871.0,STARLINK-4207,PAYLOAD,2024-01-04 05:16:25,15.08858459,0.0001788,53.2182,345.1281,82.523,277.5966,0.00034305,5.179e-05,0.0,0 STARLINK-4207,1 52871U 22062AT  24004.21973493  .00005179  00000-0  34305-3 0  9993,2 52871  53.2182 345.1281 0001788  82.5230 277.5966 15.08858459 85978,6917.824,95.436,540.926,538.452,0.0
52871.0,STARLINK-4207,PAYLOAD,2024-01-04 22:45:39,15.08851575,0.0001857,53.2183,341.8565,97.4328,262.6875,0.00028245,4.211e-05,0.0,0 STARLINK-4207,1 52871U 22062AT  24004.94837250  .00004211  00000-0  28245-3 0  9995,2 52871  53.2183 341.8565 0001857  97.4328 262.6875 15.08851575 86086,6917.845,95.437,540.995,538.425,0.0
52871.0,STARLINK-4207,PAYLOAD,2024-01-05 05:07:11,15.08855385,0.0001657,53.2182,340.6658,86.8786,273.2395,0.00031982,4.808e-05,0.0,0 STARLINK-4207,1 52871U 22062AT  24005.21333003  .00004808  00000-0  31982-3 0  9997,2 52871  53.2182 340.6658 0001657  86.8786 273.2395 15.08855385 86610,6917.833,95.437,540.845,538.552,0.0
52871.0,STARLINK-4207,PAYLOAD,2024-01-05 08:17:57,15.08859321,0.0001597,53.2181,340.0713,87.0907,273.0268,0.00034753,5.25e-05,0.0,0 STARLINK-4207,1 52871U 22062AT  24005.34580825  .00005250  00000-0  34753-3 0  9998,2 52871  53.2181 340.0713 0001597  87.0907 273.0268 15.08859321 86145,6917.821,95.436,540.791,538.582,0.0
52871.0,STARLINK-4207,PAYLOAD,2024-01-06 03:22:35,15.08843288,0.0001654,53.2171,336.4996,96.448,263.6701,0.00014277,1.985e-05,0.0,0 STARLINK-4207,1 52871U 22062AT  24006.14068916  .00001985  00000-0  14277-3 0  9999,2 52871  53.2171 336.4996 0001654  96.4480 263.6701 15.08843288 86759,6917.87,95.437,540.88,538.591,0.0
52871.0,STARLINK-4207,PAYLOAD,2024-01-06 04:57:58,15.08845772,0.0001681,53.2174,336.2049,90.0071,270.1113,6.6071e-05,7.64e-06,0.0,0 STARLINK-4207,1 52871U 22062AT  24006.20692879  .00000764  00000-0  66071-4 0  9991,2 52871  53.2174 336.2049 0001681  90.0071 270.1113 15.08845772 86272,6917.863,95.437,540.891,538.565,0.0
52871.0,STARLINK-4207,PAYLOAD,2024-01-06 22:27:13,15.08839356,0.000161,53.2171,332.9344,92.6188,267.4989,1.6556e-05,-2.5e-07,0.0,0 STARLINK-4207,1 52871U 22062AT  24006.93557209 -.00000025  00000-0  16556-4 0  9992,2 52871  53.2171 332.9344 0001610  92.6188 267.4989 15.08839356 86382,6917.882,95.438,540.861,538.634,0.0
52871.0,STARLINK-4207,PAYLOAD,2024-01-07 03:13:22,15.08844653,0.0001631,53.2171,332.042,93.3802,266.7377,8.26e-05,1.027e-05,0.0,0 STARLINK-4207,1 52871U 22062AT  24007.13428913  .00001027  00000-0  82600-4 0  9999,2 52871  53.2171 332.0420 0001631  93.3802 266.7377 15.08844653 86415,6917.866,95.437,540.859,538.603,0.0
52871.0,STARLINK-4207,PAYLOAD,2024-01-08 03:04:09,15.0883904,0.0001658,53.2169,327.5815,94.6444,265.4738,6.3799e-05,7.27e-06,0.0,0 STARLINK-4207,1 52871U 22062AT  24008.12789290  .00000727  00000-0  63799-4 0  9991,2 52871  53.2169 327.5815 0001658  94.6444 265.4738 15.08839040 87056,6917.883,95.438,540.895,538.601,0.0
52871.0,STARLINK-4207,PAYLOAD,2024-01-08 06:14:56,15.08842797,0.0001618,53.2172,326.9871,90.8236,269.2941,0.00012539,1.708e-05,0.0,0 STARLINK-4207,1 52871U 22062AT  24008.26037144  .00001708  00000-0  12539-3 0  9995,2 52871  53.2172 326.9871 0001618  90.8236 269.2941 15.08842797 86586,6917.872,95.437,540.856,538.618,0.0
52871.0,STARLINK-4207,PAYLOAD,2024-01-09 06:05:42,15.08851841,0.0001579,53.2181,322.5229,98.0114,262.1058,1.2726e-05,-8.5e-07,0.0,0 STARLINK-4207,1 52871U 22062AT  24009.25396619 -.00000085  00000-0  12726-4 0  9997,2 52871  53.2181 322.5229 0001579  98.0114 262.1058 15.08851841 87229,6917.844,95.437,540.802,538.617,0.0
52871.0,STARLINK-4207,PAYLOAD,2024-01-09 20:24:11,15.08844576,0.0001889,53.2177,319.8493,105.6126,254.5074,9.5083e-05,1.226e-05,0.0,0 STARLINK-4207,1 52871U 22062AT  24009.85013196  .00001226  00000-0  95083-4 0  9993,2 52871  53.2177 319.8493 0001889 105.6126 254.5074 15.08844576 87318,6917.866,95.437,541.038,538.425,0.0
